NORAD_CAT_ID,OBJECT_NAME,OBJECT_TYPE,EPOCH,MEAN_MOTION,ECCENTRICITY,INCLINATION,RA_OF_ASC_NODE,ARG_OF_PERICENTER,MEAN_ANOMALY,BSTAR,MEAN_MOTION_DOT,MEAN_MOTION_DDOT,TLE_LINE0,TLE_LINE1,TLE_LINE2,SEMIMAJOR_AXIS,PERIOD,APOGEE,PERIGEE,DECAYED
55959.0,STARLINK-5929,PAYLOAD,2024-01-13 04:35:41,14.983282,0.0003008,69.9995,87.4872,268.8291,91.2523,-7.7539e-05,-1.018e-05,0.0,0 STARLINK-5929,1 55959U 23037AX  24013.19145428 -.00001018  00000-0 -77539-4 0  9999,2 55959  69.9995  87.4872 0003008 268.8291  91.2523 14.98328200 47005,6950.198,96.107,574.154,569.973,0.0
55959.0,STARLINK-5929,PAYLOAD,2024-01-13 14:12:29,14.98332993,0.0002732,70.0004,86.4786,265.6772,94.4075,-2.6779e-05,-4.12e-06,0.0,0 STARLINK-5929,1 55959U 23037AX  24013.59200983 -.00000412  00000-0 -26779-4 0  9998,2 55959  70.0004  86.4786 0002732 265.6772  94.4075 14.98332993 46723,6950.184,96.107,573.947,570.15,0.0
55959.0,STARLINK-5929,PAYLOAD,2024-01-14 04:37:42,14.98321887,0.0002738,70.0004,84.964,265.0325,95.0522,5.1654e-05,5.23e-06,0.0,0 STARLINK-5929,1 55959U 23037AX  24014.19285506  .00000523  00000-0  51654-4 0  9990,2 55959  70.0004  84.9640 0002738 265.0325  95.0522 14.98321887 47151,6950.218,96.108,573.986,570.18,0.0
55959.0,STARLINK-5929,PAYLOAD,2024-01-14 14:14:30,14.98326218,0.0002665,70.0006,83.9546,263.9288,96.1567,9.6116e-05,1.054e-05,0.0,0 STARLINK-5929,1 55959U 23037AX  24014.59341260  .00001054  00000-0  96116-4 0  9996,2 55959  70.0006  83.9546 0002665 263.9288  96.1567 14.98326218 46873,6950.205,96.107,573.922,570.217,0.0
55959.0,STARLINK-5929,PAYLOAD,2024-01-15 11:04:15,14.98335167,0.0002626,70.0006,81.7666,264.5862,95.4998,6.596e-05,6.94e-06,0.0,0 STARLINK-5929,1 55959U 23037AX  24015.46128690  .00000694  00000-0  65960-4 0  9995,2 55959  70.0006  81.7666 0002626 264.5862  95.4998 14.98335167 47340,6950.177,96.107,573.867,570.217,0.0
55959.0,STARLINK-5929,PAYLOAD,2024-01-15 14:16:31,14.9833656,0.0002601,70.0006,81.4302,264.5072,95.5791,7.9974e-05,8.62e-06,0.0,0 STARLINK-5929,1 55959U 23037AX  24015.59480509  .00000862  00000-0  79974-4 0  9996,2 55959  70.0006  81.4302 0002601 264.5072  95.5791 14.98336560 47025,6950.173,96.107,573.845,570.23,0.0
55959.0,STARLINK-5929,PAYLOAD,2024-01-16 11:06:17,14.98323557,0.000233,70.0012,79.2424,265.0666,95.0227,-4.1768e-05,-5.91e-06,0.0,0 STARLINK-5929,1 55959U 23037AX  24016.46269769 -.00000591  00000-0 -41768-4 0  9997,2 55959  70.0012  79.2424 0002330 265.0666  95.0227 14.98323557 47498,6950.213,96.107,573.697,570.458,0.0
55959.0,STARLINK-5929,PAYLOAD,2024-01-16 14:18:33,14.98324463,0.0002441,70.0009,78.9065,259.1317,100.9567,-4.0249e-05,-5.73e-06,0.0,0 STARLINK-5929,1 55959U 23037AX  24016.59621668 -.00000573  00000-0 -40249-4 0  9994,2 55959  70.0009  78.9065 0002441 259.1317 100.9567 14.98324463 47176,6950.21,96.107,573.772,570.378,0.0
55959.0,STARLINK-5929,PAYLOAD,2024-01-17 11:08:17,14.98328074,0.0002288,70.0011,76.7173,257.5749,102.5154,-6.3254e-05,-8.47e-06,0.0,0 STARLINK-5929,1 55959U 23037AX  24017.46409585 -.00000847  00000-0 -63254-4 0  9998,2 55959  70.0011  76.7173 0002288 257.5749 102.5154 14.98328074 47649,6950.199,96.107,573.654,570.474,0.0
55959.0,STARLINK-5929,PAYLOAD,2024-01-17 14:20:34,14.98327902,0.0002283,70.0011,76.3804,260.8048,99.2853,-6.2714e-05,-8.41e-06,0.0,0 STARLINK-5929,1 55959U 23037AX  24017.59761632 -.00000841  00000-0 -62714-4 0  9990,2 55959  70.0011  76.3804 0002283 260.8048  99.2853 14.98327902 47322,6950.199,96.107,573.651,570.478,0.0
55959.0,STARLINK-5929,PAYLOAD,2024-01-18 04:45:45,14.98332139,0.000262,70.0001,74.8638,265.6678,94.4182,9.5967e-05,1.052e-05,0.0,0 STARLINK-5929,1 55959U 23037AX  24018.19844826  .00001052  00000-0  95967-4 0  9993,2 55959  70.0001  74.8638 0002620 265.6678  94.4182 14.98332139 47753,6950.186,96.107,573.872,570.23,0.0
55959.0,STARLINK-5929,PAYLOAD,2024-01-18 12:46:26,14.9833458,0.000259,70.0002,74.0221,265.1622,94.9241,0.0001166,1.299e-05,0.0,0 STARLINK-5929,1 55959U 23037AX  24018.53224554  .00001299  00000-0  11660-3 0  9991,2 55959  70.0002  74.0221 0002590 265.1622  94.9241 14.98334580 47465,6950.179,96.107,573.844,570.244,0.0
55959.0,STARLINK-5929,PAYLOAD,2024-01-19 11:12:19,14.98329926,0.0002637,70.0,71.6654,262.6678,97.4181,1.7231e-05,1.13e-06,0.0,0 STARLINK-5929,1 55959U 23037AX  24019.46688955  .00000113  00000-0  17231-4 0  9998,2 55959  70.0000  71.6654 0002637 262.6678  97.4181 14.98329926 47943,6950.193,96.107,573.891,570.225,0.0
55959.0,STARLINK-5929,PAYLOAD,2024-01-19 12:48:27,14.98330603,0.0002637,70.0,71.4972,263.3657,96.7202,2.3067e-05,1.82e-06,0.0,0 STARLINK-5929,1 55959U 23037AX  24019.53364887  .00000182  00000-0  23067-4 0  9991,2 55959  70.0000  71.4972 0002637 263.3657  96.7202 14.98330603 47613,6950.191,96.107,573.889,570.223,0.0
55959.0,STARLINK-5929,PAYLOAD,2024-01-20 11:14:20,14.9832907,0.000251,70.0006,69.1411,259.7049,100.3827,-8.4975e-05,-1.107e-05,0.0,0 STARLINK-5929,1 55959U 23037AX  24020.46829189 -.00001107  00000-0 -84975-4 0  9991,2 55959  70.0006  69.1411 0002510 259.7049 100.3827 14.98329070 48099,6950.196,96.107,573.805,570.316,0.0
55959.0,STARLINK-5929,PAYLOAD,2024-01-20 12:50:28,14.9832929,0.0002613,70.0002,68.9722,267.1961,92.8899,-9.0002e-05,-1.167e-05,0.0,0 STARLINK-5929,1 55959U 23037AX  24020.53505219 -.00001167  00000-0 -90002-4 0  9998,2 55959  70.0002  68.9722 0002613 267.1961  92.8899 14.98329290 47768,6950.195,96.107,573.876,570.244,0.0
55959.0,STARLINK-5929,PAYLOAD,2024-01-21 06:27:57,14.98329207,0.000276,70.0,67.1208,269.3852,90.699,-6.8775e-06,-1.75e-06,0.0,0 STARLINK-5929,1 55959U 23037AX  24021.26940974 -.00000175  00000-0 -68775-5 0  9991,2 55959  70.0000  67.1208 0002760 269.3852  90.6990 14.98329207 47870,6950.195,96.107,573.979,570.142,0.0
55959.0,STARLINK-5929,PAYLOAD,2024-01-21 12:52:29,14.98331939,0.0002708,70.0,66.4478,268.1228,91.962,2.7517e-05,2.35e-06,0.0,0 STARLINK-5929,1 55959U 23037AX  24021.53644695  .00000235  00000-0  27517-4 0  9995,2 55959  70.0000  66.4478 0002708 268.1228  91.9620 14.98331939 48259,6950.187,96.107,573.934,570.17,0.0
55959.0,STARLINK-5929,PAYLOAD,2024-01-22 06:29:57,14.98327767,0.000269,70.0,64.5958,268.2179,91.8671,3.5906e-05,3.35e-06,0.0,0 STARLINK-5929,1 55959U 23037AX  24022.27080964  .00000335  00000-0  35906-4 0  9992,2 55959  70.0000  64.5958 0002690 268.2179  91.8671 14.98327767 48021,6950.2,96.107,573.934,570.195,0.0
55959.0,STARLINK-5929,PAYLOAD,2024-01-22 12:54:30,14.98329543,0.000266,70.0001,63.9227,267.8546,92.2308,5.4527e-05,5.58e-06,0.0,0 STARLINK-5929,1 55959U 23037AX  24022.53784819  .00000558  00000-0  54527-4 0  9998,2 55959  70.0001  63.9227 0002660 267.8546  92.2308 14.98329543 48402,6950.194,96.107,573.908,570.211,0.0
55959.0,STARLINK-5929,PAYLOAD,2024-01-23 06:31:58,14.98332172,0.000256,70.0004,62.0715,257.4163,102.671,1.1695e-05,4.7e-07,0.0,0 STARLINK-5929,1 55959U 23037AX  24023.27220703  .00000047  00000-0  11695-4 0  9999,2 55959  70.0004  62.0715 0002560 257.4163 102.6710 14.98332172 48175,6950.186,96.107,573.83,570.272,0.0
55959.0,STARLINK-5929,PAYLOAD,2024-01-23 11:20:22,14.98332437,0.0002549,70.0004,61.5667,261.0609,99.0262,1.7583e-05,1.17e-06,0.0,0 STARLINK-5929,1 55959U 23037AX  24023.47248661  .00000117  00000-0  17583-4 0  9994,2 55959  70.0004  61.5667 0002549 261.0609  99.0262 14.98332437 48207,6950.185,96.107,573.822,570.279,0.0
55959.0,STARLINK-5929,PAYLOAD,2024-01-24 03:21:43,14.98328209,0.0002489,70.0005,59.883,262.7451,97.3425,-1.2858e-05,-2.46e-06,0.0,0 STARLINK-5929,1 55959U 23037AX  24024.14008996 -.00000246  00000-0 -12858-4 0  9999,2 55959  70.0005  59.8830 0002489 262.7451  97.3425 14.98328209 48648,6950.198,96.107,573.793,570.334,0.0
55959.0,STARLINK-5929,PAYLOAD,2024-01-24 11:22:24,14.98324262,0.0002572,70.0004,59.0414,262.3,97.7867,-6.0015e-05,-8.09e-06,0.0,0 STARLINK-5929,1 55959U 23037AX  24024.47389436 -.00000809  00000-0 -60015-4 0  9999,2 55959  70.0004  59.0414 0002572 262.3000  97.7867 14.98324262 48353,6950.211,96.107,573.863,570.288,0.0
55959.0,STARLINK-5929,PAYLOAD,2024-01-25 03:23:44,14.98333235,0.0002793,69.9999,57.3578,260.7491,99.3352,1.0145e-06,-8.1e-07,0.0,0 STARLINK-5929,1 55959U 23037AX  24025.14148681 -.00000081  00000-0  10145-5 0  9990,2 55959  69.9999  57.3578 0002793 260.7491  99.3352 14.98333235 48791,6950.183,96.107,573.989,570.107,0.0
55959.0,STARLINK-5929,PAYLOAD,2024-01-25 11:24:24,14.98335273,0.0002749,70.0,56.5159,261.1649,98.9199,2.9844e-05,2.63e-06,0.0,0 STARLINK-5929,1 55959U 23037AX  24025.47528397  .00000263  00000-0  29844-4 0  9998,2 55959  70.0000  56.5159 0002749 261.1649  98.9199 14.98335273 48501,6950.177,96.107,573.952,570.131,0.0
55959.0,STARLINK-5929,PAYLOAD,2024-01-26 03:25:45,14.98327217,0.0002676,70.0003,54.833,255.5648,104.5214,5.6031e-05,5.76e-06,0.0,0 STARLINK-5929,1 55959U 23037AX  24026.14288720  .00000576  00000-0  56031-4 0  9991,2 55959  70.0003  54.8330 0002676 255.5648 104.5214 14.98327217 48940,6950.201,96.107,573.926,570.207,0.0
55959.0,STARLINK-5929,PAYLOAD,2024-01-26 11:26:25,14.9832745,0.0002669,70.0004,53.9915,254.3393,105.7471,5.2309e-05,5.31e-06,0.0,0 STARLINK-5929,1 55959U 23037AX  24026.47668760  .00000531  00000-0  52309-4 0  9998,2 55959  70.0004  53.9915 0002669 254.3393 105.7471 14.98327450 48651,6950.201,96.107,573.921,570.211,0.0
55959.0,STARLINK-5929,PAYLOAD,2024-01-27 11:28:26,14.98332259,0.0002728,70.0,51.4644,268.2746,91.8101,-1.8155e-05,-3.1e-06,0.0,0 STARLINK-5929,1 55959U 23037AX  24027.47808670 -.00000310  00000-0 -18155-4 0  9993,2 55959  70.0000  51.4644 0002728 268.2746  91.8101 14.98332259 49144,6950.186,96.107,573.947,570.155,0.0
55959.0,STARLINK-5929,PAYLOAD,2024-01-28 11:30:27,14.98330146,0.0002734,70.0002,48.9392,270.0971,89.9875,1.2657e-05,5.8e-07,0.0,0 STARLINK-5929,1 55959U 23037AX  24028.47948656  .00000058  00000-0  12657-4 0  9991,2 55959  70.0002  48.9392 0002734 270.0971  89.9875 14.98330146 49290,6950.192,96.107,573.958,570.157,0.0
